[{"OBJECT_NAME":"MENUT","OBJECT_ID":"2023-001B","EPOCH":"2026-03-09T22:54:07.816032","MEAN_MOTION":15.48957627,"ECCENTRICITY":0.00067102,"INCLINATION":97.3307,"RA_OF_ASC_NODE":134.6446,"ARG_OF_PERICENTER":114.9436,"MEAN_ANOMALY":245.2513,"EPHEMERIS_TYPE":0,"CLASSIFICATION_TYPE":"U","NORAD_CAT_ID":55010,"ELEMENT_SET_NO":999,"REV_AT_EPOCH":17698,"BSTAR":0.001042068,"MEAN_MOTION_DOT":0.00056578,"MEAN_MOTION_DDOT":0},{"OBJECT_NAME":"OBJECT AC","OBJECT_ID":"2024-199AC","EPOCH":"2026-03-09T22:27:25.552224","MEAN_MOTION":15.49748624,"ECCENTRICITY":0.00048973,"INCLINATION":97.3101,"RA_OF_ASC_NODE":303.6895,"ARG_OF_PERICENTER":286.8093,"MEAN_ANOMALY":73.2621,"EPHEMERIS_TYPE":0,"CLASSIFICATION_TYPE":"U","NORAD_CAT_ID":61761,"ELEMENT_SET_NO":999,"REV_AT_EPOCH":12220,"BSTAR":0.00074432819,"MEAN_MOTION_DOT":0.00041426,"MEAN_MOTION_DDOT":0}]
